[{"OBJECT_NAME":"TIANMU-1 07","OBJECT_ID":"2023-101A","EPOCH":"2026-03-06T13:47:20.454720","MEAN_MOTION":15.29118809,"ECCENTRICITY":0.00046097,"INCLINATION":97.2728,"RA_OF_ASC_NODE":118.5929,"ARG_OF_PERICENTER":142.4105,"MEAN_ANOMALY":217.7458,"EPHEMERIS_TYPE":0,"CLASSIFICATION_TYPE":"U","NORAD_CAT_ID":57399,"ELEMENT_SET_NO":999,"REV_AT_EPOCH":14596,"BSTAR":0.00029794732,"MEAN_MOTION_DOT":8.352e-5,"MEAN_MOTION_DDOT":0},{"OBJECT_NAME":"STARLINK-33769","OBJECT_ID":"2025-089X","EPOCH":"2026-03-09T23:17:37.927968","MEAN_MOTION":15.2759033,"ECCENTRICITY":8.685e-5,"INCLINATION":42.9971,"RA_OF_ASC_NODE":43.3742,"ARG_OF_PERICENTER":154.0661,"MEAN_ANOMALY":206.0235,"EPHEMERIS_TYPE":0,"CLASSIFICATION_TYPE":"U","NORAD_CAT_ID":63773,"ELEMENT_SET_NO":999,"REV_AT_EPOCH":4899,"BSTAR":0.00089490488,"MEAN_MOTION_DOT":0.00024453,"MEAN_MOTION_DDOT":0}]
